IXPE                    
1 49954U 21121A   24089.91667824  .00006710  00000+0  49734-3 0  9997
2 49954   0.2303 261.4117 0009829 182.9301  46.8958 14.97077163  5791
